NORAD_CAT_ID,OBJECT_NAME,OBJECT_TYPE,EPOCH,MEAN_MOTION,ECCENTRICITY,INCLINATION,RA_OF_ASC_NODE,ARG_OF_PERICENTER,MEAN_ANOMALY,BSTAR,MEAN_MOTION_DOT,MEAN_MOTION_DDOT,TLE_LINE0,TLE_LINE1,TLE_LINE2,SEMIMAJOR_AXIS,PERIOD,APOGEE,PERIGEE,DECAYED
55918.0,STARLINK-5867,PAYLOAD,2024-05-09 13:08:32,14.9833898,0.0002919,70.0006,191.7047,271.0491,89.0333,0.00012434,1.391e-05,0.0,0 STARLINK-5867,1 55918U 23037E   24130.54760260  .00001391  00000-0  12434-3 0  9994,2 55918  70.0006 191.7047 0002919 271.0491  89.0333 14.98338980 63252,6950.165,96.106,574.059,570.001,0.0
55918.0,STARLINK-5867,PAYLOAD,2024-05-10 03:33:46,14.9832948,0.0002882,70.0005,190.1896,268.4476,91.6353,9.2816e-05,1.015e-05,0.0,0 STARLINK-5867,1 55918U 23037E   24131.14844992  .00001015  00000-0  92816-4 0  9992,2 55918  70.0005 190.1896 0002882 268.4476  91.6353 14.98329480 63681,6950.194,96.107,574.063,570.056,0.0
55918.0,STARLINK-5867,PAYLOAD,2024-05-10 13:10:34,14.9832814,0.0002913,70.0005,189.18,266.0935,93.9891,6.072e-05,6.32e-06,0.0,0 STARLINK-5867,1 55918U 23037E   24131.54901161  .00000632  00000-0  60720-4 0  9991,2 55918  70.0005 189.1800 0002913 266.0935  93.9891 14.98328140 63407,6950.199,96.107,574.088,570.039,0.0
55918.0,STARLINK-5867,PAYLOAD,2024-05-11 05:11:53,14.98359253,0.0002683,70.0008,187.4975,260.5186,99.567,0.00028774,3.344e-05,0.0,0 STARLINK-5867,1 55918U 23037E   24132.21658737  .00003344  00000-0  28774-3 0  9999,2 55918  70.0008 187.4975 0002683 260.5186  99.5670 14.98359253 63849,6950.102,96.105,573.832,570.103,0.0
55918.0,STARLINK-5867,PAYLOAD,2024-05-11 13:12:32,14.98386196,0.0002975,70.0011,186.6552,267.7264,92.3554,0.0009562,0.00011351,0.0,0 STARLINK-5867,1 55918U 23037E   24132.55037148  .00011351  00000-0  95620-3 0  9994,2 55918  70.0011 186.6552 0002975 267.7264  92.3554 14.98386196 63898,6950.019,96.103,573.952,569.816,0.0
55918.0,STARLINK-5867,PAYLOAD,2024-05-11 21:13:13,14.98361171,0.0002556,70.0014,185.8135,284.1678,75.9197,0.00048771,5.736e-05,0.0,0 STARLINK-5867,1 55918U 23037E   24132.88418077  .00005736  00000-0  48771-3 0  9999,2 55918  70.0014 185.8135 0002556 284.1678  75.9197 14.98361171 63948,6950.096,96.105,573.738,570.185,0.0
55918.0,STARLINK-5867,PAYLOAD,2024-05-12 05:13:55,14.98320165,0.0003138,70.0004,184.9714,277.1668,82.9135,-0.00029731,-3.638e-05,0.0,0 STARLINK-5867,1 55918U 23037E   24133.21799772 -.00003638  00000-0 -29731-3 0  9997,2 55918  70.0004 184.9714 0003138 277.1668  82.9135 14.98320165 63991,6950.223,96.108,574.269,569.907,0.0
55918.0,STARLINK-5867,PAYLOAD,2024-05-12 13:14:37,14.98273469,0.0003144,70.0,184.1302,274.6543,85.4256,-0.0011534,-0.00013808,0.0,0 STARLINK-5867,1 55918U 23037E   24133.55182624 -.00013808  00000-0 -11534-2 0  9997,2 55918  70.0000 184.1302 0003144 274.6543  85.4256 14.98273469 64046,6950.368,96.111,574.418,570.048,0.0
55918.0,STARLINK-5867,PAYLOAD,2024-05-12 21:15:18,14.98289075,0.0003068,70.0004,183.2885,276.0087,84.0722,-0.00079775,-9.589e-05,0.0,0 STARLINK-5867,1 55918U 23037E   24133.88562585 -.00009589  00000-0 -79775-3 0  9994,2 55918  70.0004 183.2885 0003068 276.0087  84.0722 14.98289075 64098,6950.319,96.11,574.317,570.052,0.0
55918.0,STARLINK-5867,PAYLOAD,2024-05-13 05:15:58,14.98297084,0.0003291,70.0014,182.4491,280.0744,80.0044,-0.00083786,-0.00010068,0.0,0 STARLINK-5867,1 55918U 23037E   24134.21942799 -.00010068  00000-0 -83786-3 0  9992,2 55918  70.0014 182.4491 0003291 280.0744  80.0044 14.98297084 64144,6950.295,96.109,574.447,569.872,0.0
55918.0,STARLINK-5867,PAYLOAD,2024-05-13 11:40:29,14.9832363,0.0003077,70.0002,181.7731,279.5531,80.528,0.00015446,1.75e-05,0.0,0 STARLINK-5867,1 55918U 23037E   24134.48645692  .00001750  00000-0  15446-3 0  9997,2 55918  70.0002 181.7731 0003077 279.5531  80.5280 14.98323630 64187,6950.213,96.107,574.216,569.939,0.0
55918.0,STARLINK-5867,PAYLOAD,2024-05-14 11:42:30,14.98323793,0.000307,69.9996,179.2492,277.9727,82.1084,0.00048532,5.702e-05,0.0,0 STARLINK-5867,1 55918U 23037E   24135.48785527  .00005702  00000-0  48532-3 0  9993,2 55918  69.9996 179.2492 0003070 277.9727  82.1084 14.98323793 64331,6950.212,96.107,574.211,569.943,0.0
55918.0,STARLINK-5867,PAYLOAD,2024-05-14 22:55:28,14.98315848,0.0003172,69.9994,178.0708,302.9435,57.1418,0.00087948,0.00010413,0.0,0 STARLINK-5867,1 55918U 23037E   24135.95518661  .00010413  00000-0  87948-3 0  9997,2 55918  69.9994 178.0708 0003172 302.9435  57.1418 14.98315848 64069,6950.237,96.108,574.306,569.897,0.0
55918.0,STARLINK-5867,PAYLOAD,2024-05-15 11:44:31,14.98351949,0.0003222,70.0005,176.7244,279.6027,80.4767,0.00053533,6.304e-05,0.0,0 STARLINK-5867,1 55918U 23037E   24136.48924899  .00006304  00000-0  53533-3 0  9997,2 55918  70.0005 176.7244 0003222 279.6027  80.4767 14.98351949 64482,6950.125,96.106,574.229,569.751,0.0
55918.0,STARLINK-5867,PAYLOAD,2024-05-16 13:22:39,14.98342043,0.000266,70.0001,174.0311,266.9633,93.1222,7.7247e-05,8.29e-06,0.0,0 STARLINK-5867,1 55918U 23037E   24137.55740511  .00000829  00000-0  77247-4 0  9998,2 55918  70.0001 174.0311 0002660 266.9633  93.1222 14.98342043 64641,6950.156,96.106,573.869,570.172,0.0
55918.0,STARLINK-5867,PAYLOAD,2024-05-17 05:24:00,14.98335236,0.0002991,69.9995,172.3471,274.9761,85.1056,-0.00010451,-1.34e-05,0.0,0 STARLINK-5867,1 55918U 23037E   24138.22500770 -.00001340  00000-0 -10451-3 0  9998,2 55918  69.9995 172.3471 0002991 274.9761  85.1056 14.98335236 64749,6950.177,96.107,574.12,569.963,0.0
55918.0,STARLINK-5867,PAYLOAD,2024-05-17 11:48:33,14.98330903,0.0002693,69.9998,171.6734,261.2145,98.8709,-0.00013381,-1.689e-05,0.0,0 STARLINK-5867,1 55918U 23037E   24138.49204927 -.00001689  00000-0 -13381-3 0  9993,2 55918  69.9998 171.6734 0002693 261.2145  98.8709 14.98330903 64449,6950.19,96.107,573.927,570.183,0.0
55918.0,STARLINK-5867,PAYLOAD,2024-05-18 05:26:01,14.98326673,0.0002979,69.9997,169.8218,268.3741,91.7077,0.00011189,1.242e-05,0.0,0 STARLINK-5867,1 55918U 23037E   24139.22640451  .00001242  00000-0  11189-3 0  9998,2 55918  69.9997 169.8218 0002979 268.3741  91.7077 14.98326673 64899,6950.203,96.107,574.139,569.998,0.0
55918.0,STARLINK-5867,PAYLOAD,2024-05-18 11:50:33,14.98333989,0.0003034,69.9995,169.1488,270.059,90.0221,4.4617e-05,4.39e-06,0.0,0 STARLINK-5867,1 55918U 23037E   24139.49344149  .00000439  00000-0  44617-4 0  9992,2 55918  69.9995 169.1488 0003034 270.0590  90.0221 14.98333989 64592,6950.181,96.107,574.154,569.937,0.0
55918.0,STARLINK-5867,PAYLOAD,2024-05-18 19:51:14,14.98328611,0.0003075,69.9995,168.3075,269.8863,90.1943,8.5936e-06,1e-07,0.0,0 STARLINK-5867,1 55918U 23037E   24139.82724547  .00000010  00000-0  85936-5 0  9998,2 55918  69.9995 168.3075 0003075 269.8863  90.1943 14.98328611 64643,6950.197,96.107,574.199,569.925,0.0
55918.0,STARLINK-5867,PAYLOAD,2024-05-19 05:28:02,14.98322229,0.0003092,69.9993,167.298,269.7814,90.299,3.9833e-05,3.82e-06,0.0,0 STARLINK-5867,1 55918U 23037E   24140.22781024  .00000382  00000-0  39833-4 0  9993,2 55918  69.9993 167.2980 0003092 269.7814  90.2990 14.98322229 65045,6950.217,96.107,574.231,569.933,0.0
55918.0,STARLINK-5867,PAYLOAD,2024-05-19 11:52:35,14.98324159,0.0003074,69.9992,166.6247,269.7259,90.3547,5.8599e-05,6.06e-06,0.0,0 STARLINK-5867,1 55918U 23037E   24140.49484983  .00000606  00000-0  58599-4 0  9995,2 55918  69.9992 166.6247 0003074 269.7259  90.3547 14.98324159 64745,6950.211,96.107,574.212,569.939,0.0
55918.0,STARLINK-5867,PAYLOAD,2024-05-20 05:30:03,14.98335386,0.0003111,69.999,164.7732,269.9427,90.1376,5.81e-05,6e-06,0.0,0 STARLINK-5867,1 55918U 23037E   24141.22920300  .00000600  00000-0  58100-4 0  9997,2 55918  69.9990 164.7732 0003111 269.9427  90.1376 14.98335386 65194,6950.176,96.107,574.203,569.879,0.0
55918.0,STARLINK-5867,PAYLOAD,2024-05-20 11:54:35,14.98337,0.0003093,69.9991,164.0999,270.035,90.0454,7.3483e-05,7.84e-06,0.0,0 STARLINK-5867,1 55918U 23037E   24141.49624069  .00000784  00000-0  73483-4 0  9993,2 55918  69.9991 164.0999 0003093 270.0350  90.0454 14.98337000 64897,6950.171,96.107,574.186,569.887,0.0
55918.0,STARLINK-5867,PAYLOAD,2024-05-21 03:55:56,14.98328846,0.0003086,69.9988,162.4165,268.8701,91.2104,8.4067e-05,9.1e-06,0.0,0 STARLINK-5867,1 55918U 23037E   24142.16384466  .00000910  00000-0  84067-4 0  9993,2 55918  69.9988 162.4165 0003086 268.8701  91.2104 14.98328846 65330,6950.196,96.107,574.206,569.917,0.0
55918.0,STARLINK-5867,PAYLOAD,2024-05-21 08:44:20,14.9832842,0.0003064,69.999,161.9117,269.0765,91.0043,8.6886e-05,9.44e-06,0.0,0 STARLINK-5867,1 55918U 23037E   24142.36412511  .00000944  00000-0  86886-4 0  9996,2 55918  69.9990 161.9117 0003064 269.0765  91.0043 14.98328420 65027,6950.198,96.107,574.192,569.933,0.0
55918.0,STARLINK-5867,PAYLOAD,2024-05-22 03:57:56,14.98336134,0.0003036,69.9991,159.8921,265.0901,94.9911,2.4285e-05,1.97e-06,0.0,0 STARLINK-5867,1 55918U 23037E   24143.16523988  .00000197  00000-0  24285-4 0  9991,2 55918  69.9991 159.8921 0003036 265.0901  94.9911 14.98336134 65481,6950.174,96.107,574.149,569.929,0.0
55918.0,STARLINK-5867,PAYLOAD,2024-05-22 10:22:28,14.98335226,0.0003049,69.9991,159.2189,265.5781,94.503,1.0475e-05,3.2e-07,0.0,0 STARLINK-5867,1 55918U 23037E   24143.43227976  .00000032  00000-0  10475-4 0  9993,2 55918  69.9991 159.2189 0003049 265.5781  94.5030 14.98335226 65182,6950.177,96.107,574.161,569.923,0.0
55918.0,STARLINK-5867,PAYLOAD,2024-05-23 03:59:57,14.98328203,0.0003041,69.9991,157.3676,265.9769,94.1042,1.0875e-05,3.7e-07,0.0,0 STARLINK-5867,1 55918U 23037E   24144.16664298  .00000037  00000-0  10875-4 0  9995,2 55918  69.9991 157.3676 0003041 265.9769  94.1042 14.98328203 65630,6950.198,96.107,574.177,569.95,0.0
55918.0,STARLINK-5867,PAYLOAD,2024-05-23 10:24:30,14.98326854,0.0003051,69.9991,156.6944,266.2005,93.8805,-7.2905e-06,-1.8e-06,0.0,0 STARLINK-5867,1 55918U 23037E   24144.43368452 -.00000180  00000-0 -72905-5 0  9992,2 55918  69.9991 156.6944 0003051 266.2005  93.8805 14.98326854 65338,6950.203,96.107,574.188,569.947,0.0
